{"type": "FeatureCollection", "features": [ {"type": "Feature", "properties": {"norad_id": 66900, "name": "STARLINK-36074", "group": "last-30-days", "lat": 45.028391412293736, "lon": 50.72986972739697, "alt_km": 400.12164475871396, "timestamp": "2025-12-27T03:58:42.933078+00:00", "meta": {"OBJECT_NAME": "STARLINK-36074", "OBJECT_ID": "2025-283Y", "EPOCH": "2025-12-26T20:00:01.999008", "MEAN_MOTION": 15.54851892, "ECCENTRICITY": 0.0001057, "INCLINATION": 53.1597, "RA_OF_ASC_NODE": 3.6998, "ARG_OF_PERICENTER": 103.8742, "MEAN_ANOMALY": 257.4494, "EPHEMERIS_TYPE": 0, "CLASSIFICATION_TYPE": "U", "NORAD_CAT_ID": 66900, "ELEMENT_SET_NO": 999, "REV_AT_EPOCH": 469, "BSTAR": -0.033205, "MEAN_MOTION_DOT": -0.02015134, "MEAN_MOTION_DDOT": 0}, "tle": {"line1": "1 66900U 25283Y   25360.83335647 -.02015134  00000+0 -33205-1 0  9997", "line2": "2 66900  53.1597   3.6998 0001057 103.8742 257.4494 15.54851892  4698"}}, "geometry": {"type": "Point", "coordinates": [50.72986972739697, 45.028391412293736]}}, {"type": "Feature", "properties": {"norad_id": 66901, "name": "STARLINK-36043", "group": "last-30-days", "lat": 46.02049453427594, "lon": 53.0730302940479, "alt_km": 399.910776338972, "timestamp": "2025-12-27T03:58:42.933087+00:00", "meta": {"OBJECT_NAME": "STARLINK-36043", "OBJECT_ID": "2025-283Z", "EPOCH": "2025-12-26T20:00:01.999008", "MEAN_MOTION": 15.54849306, "ECCENTRICITY": 0.0001033, "INCLINATION": 53.1598, "RA_OF_ASC_NODE": 3.6948, "ARG_OF_PERICENTER": 93.1641, "MEAN_ANOMALY": 270.0775, "EPHEMERIS_TYPE": 0, "CLASSIFICATION_TYPE": "U", "NORAD_CAT_ID": 66901, "ELEMENT_SET_NO": 999, "REV_AT_EPOCH": 469, "BSTAR": -0.033163, "MEAN_MOTION_DOT": -0.02012701, "MEAN_MOTION_DDOT": 0}, "tle": {"line1": "1 66901U 25283Z   25360.83335647 -.02012701  00000+0 -33163-1 0  9998", "line2": "2 66901  53.1598   3.6948 0001033  93.1641 270.0775 15.54849306  4698"}}, "geometry": {"type": "Point", "coordinates": [53.0730302940479, 46.02049453427594]}}, {"type": "Feature", "properties": {"norad_id": 66902, "name": "STARLINK-35983", "group": "last-30-days", "lat": 46.9610455139287, "lon": 55.49723962138597, "alt_km": 399.78932506788715, "timestamp": "2025-12-27T03:58:42.933096+00:00", "meta": {"OBJECT_NAME": "STARLINK-35983", "OBJECT_ID": "2025-283AA", "EPOCH": "2025-12-26T20:00:01.999008", "MEAN_MOTION": 15.54845195, "ECCENTRICITY": 0.0001075, "INCLINATION": 53.1597, "RA_OF_ASC_NODE": 3.6914, "ARG_OF_PERICENTER": 103.3336, "MEAN_ANOMALY": 261.8256, "EPHEMERIS_TYPE": 0, "CLASSIFICATION_TYPE": "U", "NORAD_CAT_ID": 66902, "ELEMENT_SET_NO": 999, "REV_AT_EPOCH": 469, "BSTAR": -0.033031, "MEAN_MOTION_DOT": -0.02005246, "MEAN_MOTION_DDOT": 0}, "tle": {"line1": "1 66902U 25283AA  25360.83335647 -.02005246  00000+0 -33031-1 0  9999", "line2": "2 66902  53.1597   3.6914 0001075 103.3336 261.8256 15.54845195  4696"}}, "geometry": {"type": "Point", "coordinates": [55.49723962138597, 46.9610455139287]}}, {"type": "Feature", "properties": {"norad_id": 66903, "name": "STARLINK-36077", "group": "last-30-days", "lat": 47.84958906521432, "lon": 58.00788311717762, "alt_km": 399.59354011638516, "timestamp": "2025-12-27T03:58:42.933105+00:00", "meta": {"OBJECT_NAME": "STARLINK-36077", "OBJECT_ID": "2025-283AB", "EPOCH": "2025-12-26T20:00:01.999008", "MEAN_MOTION": 15.54845466, "ECCENTRICITY": 0.000116, "INCLINATION": 53.1599, "RA_OF_ASC_NODE": 3.6877, "ARG_OF_PERICENTER": 102.2352, "MEAN_ANOMALY": 264.841, "EPHEMERIS_TYPE": 0, "CLASSIFICATION_TYPE": "U", "NORAD_CAT_ID": 66903, "ELEMENT_SET_NO": 999, "REV_AT_EPOCH": 469, "BSTAR": -0.033052, "MEAN_MOTION_DOT": -0.02006489, "MEAN_MOTION_DDOT": 0}, "tle": {"line1": "1 66903U 25283AB  25360.83335647 -.02006489  00000+0 -33052-1 0  9993", "line2": "2 66903  53.1599   3.6877 0001160 102.2352 264.8410 15.54845466  4694"}}, "geometry": {"type": "Point", "coordinates": [58.00788311717762, 47.84958906521432]}}, {"type": "Feature", "properties": {"norad_id": 66904, "name": "STARLINK-36059", "group": "last-30-days", "lat": 48.68182443733915, "lon": 60.60485543642189, "alt_km": 399.4232785095237, "timestamp": "2025-12-27T03:58:42.933114+00:00", "meta": {"OBJECT_NAME": "STARLINK-36059", "OBJECT_ID": "2025-283AC", "EPOCH": "2025-12-26T20:00:01.999008", "MEAN_MOTION": 15.54846824, "ECCENTRICITY": 0.0001104, "INCLINATION": 53.1597, "RA_OF_ASC_NODE": 3.6827, "ARG_OF_PERICENTER": 88.8259, "MEAN_ANOMALY": 280.1639, "EPHEMERIS_TYPE": 0, "CLASSIFICATION_TYPE": "U", "NORAD_CAT_ID": 66904, "ELEMENT_SET_NO": 999, "REV_AT_EPOCH": 469, "BSTAR": -0.03304, "MEAN_MOTION_DOT": -0.0200587, "MEAN_MOTION_DDOT": 0}, "tle": {"line1": "1 66904U 25283AC  25360.83335647 -.02005870  00000+0 -33040-1 0  9994", "line2": "2 66904  53.1597   3.6827 0001104  88.8259 280.1639 15.54846824  4694"}}, "geometry": {"type": "Point", "coordinates": [60.60485543642189, 48.68182443733915]}}, {"type": "Feature", "properties": {"norad_id": 66905, "name": "STARLINK-36075", "group": "last-30-days", "lat": 49.454360314796894, "lon": 63.29073481127199, "alt_km": 399.3763781297657, "timestamp": "2025-12-27T03:58:42.933123+00:00", "meta": {"OBJECT_NAME": "STARLINK-36075", "OBJECT_ID": "2025-283AD", "EPOCH": "2025-12-26T20:00:01.999008", "MEAN_MOTION": 15.5484945, "ECCENTRICITY": 0.0001011, "INCLINATION": 53.1595, "RA_OF_ASC_NODE": 3.6794, "ARG_OF_PERICENTER": 89.6601, "MEAN_ANOMALY": 281.25, "EPHEMERIS_TYPE": 0, "CLASSIFICATION_TYPE": "U", "NORAD_CAT_ID": 66905, "ELEMENT_SET_NO": 999, "REV_AT_EPOCH": 469, "BSTAR": -0.03317, "MEAN_MOTION_DOT": -0.02013067, "MEAN_MOTION_DDOT": 0}, "tle": {"line1": "1 66905U 25283AD  25360.83335647 -.02013067  00000+0 -33170-1 0  9996", "line2": "2 66905  53.1595   3.6794 0001011  89.6601 281.2500 15.54849450  4690"}}, "geometry": {"type": "Point", "coordinates": [63.29073481127199, 49.454360314796894]}}, {"type": "Feature", "properties": {"norad_id": 66906, "name": "1998-067XS", "group": "last-30-days", "lat": 14.376165442204137, "lon": 82.55059516847331, "alt_km": 411.8268500308586, "timestamp": "2025-12-27T03:58:42.933139+00:00", "meta": {"OBJECT_NAME": "1998-067XS", "OBJECT_ID": "1998-067XS", "EPOCH": "2025-12-26T15:31:52.020768", "MEAN_MOTION": 15.5132596, "ECCENTRICITY": 0.0002673, "INCLINATION": 51.6319, "RA_OF_ASC_NODE": 73.4106, "ARG_OF_PERICENTER": 274.6448, "MEAN_ANOMALY": 85.4236, "EPHEMERIS_TYPE": 0, "CLASSIFICATION_TYPE": "U", "NORAD_CAT_ID": 66906, "ELEMENT_SET_NO": 999, "REV_AT_EPOCH": 377, "BSTAR": 0.00048785, "MEAN_MOTION_DOT": 0.0002883, "MEAN_MOTION_DDOT": 0}, "tle": {"line1": "1 66906U 98067XS  25360.64712987  .00028830  00000+0  48785-3 0  9992", "line2": "2 66906  51.6319  73.4106 0002673 274.6448  85.4236 15.51325960  3770"}}, "geometry": {"type": "Point", "coordinates": [82.55059516847331, 14.376165442204137]}}, {"type": "Feature", "properties": {"norad_id": 66907, "name": "1998-067XT", "group": "last-30-days", "lat": 49.0391929822157, "lon": -175.22251789996315, "alt_km": 402.81000585771926, "timestamp": "2025-12-27T03:58:42.933149+00:00", "meta": {"OBJECT_NAME": "1998-067XT", "OBJECT_ID": "1998-067XT", "EPOCH": "2025-12-26T12:05:04.890048", "MEAN_MOTION": 15.53165234, "ECCENTRICITY": 0.0003816, "INCLINATION": 51.6314, "RA_OF_ASC_NODE": 73.9516, "ARG_OF_PERICENTER": 309.8325, "MEAN_ANOMALY": 50.2329, "EPHEMERIS_TYPE": 0, "CLASSIFICATION_TYPE": "U", "NORAD_CAT_ID": 66907, "ELEMENT_SET_NO": 999, "REV_AT_EPOCH": 375, "BSTAR": 0.00096732, "MEAN_MOTION_DOT": 0.00061851, "MEAN_MOTION_DDOT": 0}, "tle": {"line1": "1 66907U 98067XT  25360.50352882  .00061851  00000+0  96732-3 0  9997", "line2": "2 66907  51.6314  73.9516 0003816 309.8325  50.2329 15.53165234  3750"}}, "geometry": {"type": "Point", "coordinates": [-175.22251789996315, 49.0391929822157]}}, {"type": "Feature", "properties": {"norad_id": 66908, "name": "1998-067XU", "group": "last-30-days", "lat": 46.57494720449377, "lon": -166.19314277632657, "alt_km": 403.1597999651476, "timestamp": "2025-12-27T03:58:42.933160+00:00", "meta": {"OBJECT_NAME": "1998-067XU", "OBJECT_ID": "1998-067XU", "EPOCH": "2025-12-26T18:14:01.548960", "MEAN_MOTION": 15.53257933, "ECCENTRICITY": 0.000387, "INCLINATION": 51.6313, "RA_OF_ASC_NODE": 72.6614, "ARG_OF_PERICENTER": 309.5614, "MEAN_ANOMALY": 50.5034, "EPHEMERIS_TYPE": 0, "CLASSIFICATION_TYPE": "U", "NORAD_CAT_ID": 66908, "ELEMENT_SET_NO": 999, "REV_AT_EPOCH": 379, "BSTAR": 0.00095802, "MEAN_MOTION_DOT": 0.00061456, "MEAN_MOTION_DDOT": 0}, "tle": {"line1": "1 66908U 98067XU  25360.75974015  .00061456  00000+0  95802-3 0  9991", "line2": "2 66908  51.6313  72.6614 0003870 309.5614  50.5034 15.53257933  3791"}}, "geometry": {"type": "Point", "coordinates": [-166.19314277632657, 46.57494720449377]}}, {"type": "Feature", "properties": {"norad_id": 66909, "name": "SILVERSAT", "group": "last-30-days", "lat": 41.03554995597255, "lon": -152.98042080297992, "alt_km": 403.13869229438205, "timestamp": "2025-12-27T03:58:42.933169+00:00", "meta": {"OBJECT_NAME": "SILVERSAT", "OBJECT_ID": "1998-067XV", "EPOCH": "2025-12-26T12:00:46.911744", "MEAN_MOTION": 15.53512588, "ECCENTRICITY": 0.0003773, "INCLINATION": 51.6312, "RA_OF_ASC_NODE": 73.9315, "ARG_OF_PERICENTER": 313.4073, "MEAN_ANOMALY": 46.6603, "EPHEMERIS_TYPE": 0, "CLASSIFICATION_TYPE": "U", "NORAD_CAT_ID": 66909, "ELEMENT_SET_NO": 999, "REV_AT_EPOCH": 375, "BSTAR": 0.0010737, "MEAN_MOTION_DOT": 0.00069652, "MEAN_MOTION_DDOT": 0}, "tle": {"line1": "1 66909U 98067XV  25360.50054296  .00069652  00000+0  10737-2 0  9994", "line2": "2 66909  51.6312  73.9315 0003773 313.4073  46.6603 15.53512588  3752"}}, "geometry": {"type": "Point", "coordinates": [-152.98042080297992, 41.03554995597255]}}]}